name,state,city,address,lattitude,longitude,type
Hotel Dolphin AC Charging Station,Delhi,New Delhi,"Hotel Dolphin, Railway Rd, Katra, Jammu and Kashmir 182301",32.9892,74.9289,12.0
Oyo Townhouse 118,Delhi,delhi,"20, Gagan Vihar, Krishna Nagar ",28.646011,77.296796,6.0
Oyo Townhouse 381,Delhi,delhi,"D/59, New Seemapuri Rd, Pocket E, Dilshad Colony New Simapuri, Dilshad Garden",28.68902,77.323102,6.0
Mealodroma,Delhi,delhi,"A6, 110027, Najafgarh Rd, Vishal Enclave, Rajouri Garden, Delhi, 110027",28.6486023,77.1147014,6.0
"IOCL - Gay Service Station, Azadpur",Delhi,Delhi,"Near Azadpur, New Delhi,110033",28.703312,77.181109,7.0
"IOCL - Tikri Gas, Delhi",Delhi,Delhi,"Rohtak Road, Block C, Tyagi Vihar, Ghevra, Delhi, 110072",28.6868847,76.9849286,7.0
EESL Aurbindo Market Place,Delhi,New Delhi,"Block C 2, Bhim Nagri, Hauz Khas, New Delhi, Delhi 110016",28.55177869,77.2033166,8.0
EESL Jor Bagh Market,Delhi,New Delhi,"NMDC Parking, Outside RWA Park, Jor Bagh Market, Jor Bagh Colony Road, New Delhi - 110003",28.588117,77.217564,8.0
EESL Ferns n Petal,Delhi,New Delhi,"C-17.Inner Circle Opp.Odean Cinema, Rajiv Chowk, Connaught Place, New Delhi, Delhi 110001",28.63457602,77.22062451,8.0
EESL Chelmsford Club,Delhi,Delhi,"Outside Chelmsford Club/ Opposite CSIR Building, Rafi Marg, Sansad Marg Area, New Delhi 110001",28.61826041,77.21256986,16.0
u00a0EESL Sushma Swaraj Bhawan,Delhi,Delhi,"Susma swaraj Bhawan, MEA, New Delhi",28.59583333,77.18055556,16.0
MG DELHI SHIVAJI MARG,Delhi,NEW DELHI,PLOT NO 13 SHIVAJI MARG DELHI 110015 NEW DELHI,28.66196,77.152242,20.0
"Westside, Lajpat Nagar",Delhi NCR,Delhi,"A-15, Alankar Cinema Building, Feroze Gandhi Marg, Lajpat Nagar III, New Delhi 110024",28.56817,77.24112,7.0
"IOCL - Citi Fuels, Virender Nagar",Delhi NCR,Delhi,OPP.-VIRENDER NAGAR NEAR BHARATI COLLEGE NEW DELHI-110058,28.622486,77.09547,7.0
"HPCL - Delhi Punjab Fuel Station, Singhu Border",Delhi NCR,Delhi,"15/1 Gt.karnal RD. Singhu Border, Po, Narela, Delhi, 110040",28.8558802,77.1245004,7.0
"Worldmark 3, Aerocity",Delhi NCR,Delhi,"Worldmark Aerocity, New Delhi  - 110037",28.5516849,77.1216672,7.0
"IOCL Hundred Percent Filling & Service Station, Dwarka",Maharashtra,Delhi,"Sector 9, Dwarka, New Delhi, Delhi 110073",28.578641,77.05962,7.0
"HPCL - Badarpur Service Station, Gazipur",Delhi NCR,Delhi,"Integrated Freight Complex, Mayur Vihar Phase III, Gharoli, Delhi, Uttar Pradesh 110096",28.6197025,77.3411839,7.0
Tata Power ,Delhi,Delhi,"Netaji Subash Place, Pitampura, MCD, Netaji Subhash Place, Pitampura, Delhi, 110034",28.6912791,77.1523963,7.0
Tata Power ,Delhi,Delhi,"Ssensse Hotel, Sec 25, PLOT NO.28, POCKET 5A, SECTOR 25, ROHINI NEW Delhi 110085",28.735847,77.093263,7.0
